NORAD_CAT_ID,OBJECT_NAME,OBJECT_TYPE,EPOCH,MEAN_MOTION,ECCENTRICITY,INCLINATION,RA_OF_ASC_NODE,ARG_OF_PERICENTER,MEAN_ANOMALY,BSTAR,MEAN_MOTION_DOT,MEAN_MOTION_DDOT,TLE_LINE0,TLE_LINE1,TLE_LINE2,SEMIMAJOR_AXIS,PERIOD,APOGEE,PERIGEE,DECAYED
55275.0,STARLINK-5260,PAYLOAD,2023-04-04 11:50:19,15.69923001,0.000349,70.0003,218.1709,263.0186,97.0613,1.7637e-05,1.908e-05,0.0,0 STARLINK-5260,1 55275U 23010G   23094.49328182  .00001908  00000-0  17637-4 0  9991,2 55275  70.0003 218.1709 0003490 263.0186  97.0613 15.69923001 12595,6737.254,91.724,361.471,356.768,0.0
55275.0,STARLINK-5260,PAYLOAD,2023-04-05 10:46:35,15.69952243,0.0002702,69.9995,215.4845,271.4367,88.6519,-5.0749e-05,-6.316e-05,0.0,0 STARLINK-5260,1 55275U 23010G   23095.44902766 -.00006316  00000-0 -50749-4 0  9994,2 55275  69.9995 215.4845 0002702 271.4367  88.6519 15.69952243 12740,6737.171,91.723,360.856,357.215,0.0
55275.0,STARLINK-5260,PAYLOAD,2023-04-05 16:53:38,15.69889954,0.0002168,69.9994,214.7672,248.4419,111.6545,9.5746e-05,0.00011298,0.0,0 STARLINK-5260,1 55275U 23010G   23095.70391302  .00011298  00000-0  95746-4 0  9990,2 55275  69.9994 214.7672 0002168 248.4419 111.6545 15.69889954 12460,6737.349,91.726,360.674,357.753,0.0
55275.0,STARLINK-5260,PAYLOAD,2023-04-06 09:42:53,15.69915931,0.0003444,69.9989,212.7973,269.8598,90.2203,6.048e-06,5.14e-06,0.0,0 STARLINK-5260,1 55275U 23010G   23096.40479119  .00000514  00000-0  60480-5 0  9998,2 55275  69.9989 212.7973 0003444 269.8598  90.2203 15.69915931 12579,6737.275,91.725,361.46,356.819,0.0
55275.0,STARLINK-5260,PAYLOAD,2023-04-06 11:14:38,15.69918271,0.0002911,69.9982,212.617,262.3166,97.7699,6.2637e-06,5.4e-06,0.0,0 STARLINK-5260,1 55275U 23010G   23096.46850644  .00000540  00000-0  62637-5 0  9995,2 55275  69.9982 212.6170 0002911 262.3166  97.7699 15.69918271 12905,6737.268,91.725,361.094,357.172,0.0
55275.0,STARLINK-5260,PAYLOAD,2023-04-07 07:07:25,15.69928993,0.0003228,69.9972,210.2874,266.7778,93.3049,5.3381e-06,4.29e-06,0.0,0 STARLINK-5260,1 55275U 23010G   23097.29681940  .00000429  00000-0  53381-5 0  9990,2 55275  69.9972 210.2874 0003228 266.7778  93.3049 15.69928993 12710,6737.237,91.724,361.277,356.927,0.0
55275.0,STARLINK-5260,PAYLOAD,2023-04-07 10:10:55,15.69939528,0.0002989,69.9975,209.9299,262.9263,97.1593,-3.9548e-06,-6.88e-06,0.0,0 STARLINK-5260,1 55275U 23010G   23097.42424802 -.00000688  00000-0 -39548-5 0  9995,2 55275  69.9975 209.9299 0002989 262.9263  97.1593 15.69939528 12733,6737.207,91.723,361.086,357.058,0.0
55275.0,STARLINK-5260,PAYLOAD,2023-04-08 06:03:41,15.69921444,0.0003318,69.9985,207.6046,274.3987,85.683,4.3753e-05,5.051e-05,0.0,0 STARLINK-5260,1 55275U 23010G   23098.25256447  .00005051  00000-0  43753-4 0  9994,2 55275  69.9985 207.6046 0003318 274.3987  85.6830 15.69921444 12864,6737.259,91.724,361.359,356.888,0.0
55275.0,STARLINK-5260,PAYLOAD,2023-04-08 10:38:57,15.69911425,0.0002994,69.9967,207.0637,269.057,91.0282,2.4425e-05,2.724e-05,0.0,0 STARLINK-5260,1 55275U 23010G   23098.44372642  .00002724  00000-0  24425-4 0  9990,2 55275  69.9967 207.0637 0002994 269.0570  91.0282 15.69911425 12895,6737.287,91.725,361.17,357.135,0.0
55275.0,STARLINK-5260,PAYLOAD,2023-04-09 09:35:14,15.69920634,0.0003109,69.9986,204.3782,267.1194,92.9646,-2.7039e-06,-5.38e-06,0.0,0 STARLINK-5260,1 55275U 23010G   23099.39947768 -.00000538  00000-0 -27039-5 0  9990,2 55275  69.9986 204.3782 0003109 267.1194  92.9646 15.69920634 13366,6737.261,91.724,361.221,357.031,0.0
55275.0,STARLINK-5260,PAYLOAD,2023-04-10 06:59:46,15.69918567,0.0002729,69.9985,201.8697,254.27,105.8195,2.2627e-05,2.508e-05,0.0,0 STARLINK-5260,1 55275U 23010G   23100.29150711  .00002508  00000-0  22627-4 0  9990,2 55275  69.9985 201.8697 0002729 254.2700 105.8195 15.69918567 13184,6737.267,91.725,360.971,357.293,0.0
55275.0,STARLINK-5260,PAYLOAD,2023-04-10 08:31:31,15.69916924,0.0002889,69.9984,201.6907,255.8361,104.2514,2.0618e-05,2.266e-05,0.0,0 STARLINK-5260,1 55275U 23010G   23100.35522490  .00002266  00000-0  20618-4 0  9993,2 55275  69.9984 201.6907 0002889 255.8361 104.2514 15.69916924 13512,6737.272,91.725,361.083,357.19,0.0
55275.0,STARLINK-5260,PAYLOAD,2023-04-11 08:59:33,15.69918512,0.000252,70.0008,198.8287,260.3137,99.7774,1.4e-05,1.471e-05,0.0,0 STARLINK-5260,1 55275U 23010G   23101.37469685  .00001471  00000-0  14000-4 0  9997,2 55275  70.0008 198.8287 0002520 260.3137  99.7774 15.69918512 13357,6737.267,91.725,360.83,357.434,0.0
55275.0,STARLINK-5260,PAYLOAD,2023-04-12 12:31:05,15.69929086,0.0002763,69.9987,195.6007,261.3809,98.7074,2.2985e-05,2.552e-05,0.0,0 STARLINK-5260,1 55275U 23010G   23102.52158865  .00002552  00000-0  22985-4 0  9992,2 55275  69.9987 195.6007 0002763 261.3809  98.7074 15.69929086 13531,6737.237,91.724,360.963,357.24,0.0
55275.0,STARLINK-5260,PAYLOAD,2023-04-12 18:38:05,15.69929841,0.0004041,69.9995,194.8861,270.7737,89.2996,1.3749e-05,1.441e-05,0.0,0 STARLINK-5260,1 55275U 23010G   23102.77645620  .00001441  00000-0  13749-4 0  9993,2 55275  69.9995 194.8861 0004041 270.7737  89.2996 15.69929841 13575,6737.235,91.724,361.822,356.377,0.0
55275.0,STARLINK-5260,PAYLOAD,2023-04-13 08:23:52,15.69928079,0.0002759,70.0001,193.273,270.2917,89.7963,2.5045e-05,2.8e-05,0.0,0 STARLINK-5260,1 55275U 23010G   23103.34990913  .00002800  00000-0  25045-4 0  9997,2 55275  70.0001 193.2730 0002759 270.2917  89.7963 15.69928079 13989,6737.24,91.724,360.964,357.246,0.0
55275.0,STARLINK-5260,PAYLOAD,2023-04-13 17:34:23,15.69922477,0.0003276,70.0,192.1988,271.1573,88.9248,3.9519e-06,2.62e-06,0.0,0 STARLINK-5260,1 55275U 23010G   23103.73221194  .00000262  00000-0  39519-5 0  9990,2 55275  70.0000 192.1988 0003276 271.1573  88.9248 15.69922477 13729,6737.256,91.724,361.328,356.914,0.0
55275.0,STARLINK-5260,PAYLOAD,2023-04-14 08:51:53,15.69929187,0.0003376,69.9999,190.4078,271.4646,88.6163,7.6938e-06,7.13e-06,0.0,0 STARLINK-5260,1 55275U 23010G   23104.36937490  .00000713  00000-0  76938-5 0  9990,2 55275  69.9999 190.4078 0003376 271.4646  88.6163 15.69929187 14144,6737.237,91.724,361.376,356.827,0.0
55275.0,STARLINK-5260,PAYLOAD,2023-04-14 18:02:24,15.69932005,0.000337,69.9974,189.3316,271.3547,88.7262,9.551e-06,9.36e-06,0.0,0 STARLINK-5260,1 55275U 23010G   23104.75167321  .00000936  00000-0  95510-5 0  9995,2 55275  69.9974 189.3316 0003370 271.3547  88.7262 15.69932005 13886,6737.229,91.724,361.364,356.823,0.0
55275.0,STARLINK-5260,PAYLOAD,2023-04-15 07:48:10,15.69922825,0.0003481,69.9969,187.7186,265.5483,94.5315,9.9396e-06,9.82e-06,0.0,0 STARLINK-5260,1 55275U 23010G   23105.32512697  .00000982  00000-0  99396-5 0  9996,2 55275  69.9969 187.7186 0003481 265.5483  94.5315 15.69922825 13977,6737.255,91.724,361.465,356.775,0.0
55275.0,STARLINK-5260,PAYLOAD,2023-04-15 13:55:12,15.69911355,0.0003563,69.9971,187.003,270.2182,89.8606,4.0875e-06,2.78e-06,0.0,0 STARLINK-5260,1 55275U 23010G   23105.58000473  .00000278  00000-0  40875-5 0  9994,2 55275  69.9971 187.0030 0003563 270.2182  89.8606 15.69911355 14013,6737.288,91.725,361.553,356.752,0.0
55275.0,STARLINK-5260,PAYLOAD,2023-04-15 16:58:41,15.69929999,0.0003786,69.9991,186.6468,267.3718,92.7044,1.3964e-05,1.467e-05,0.0,0 STARLINK-5260,1 55275U 23010G   23105.70742401  .00001467  00000-0  13964-4 0  9991,2 55275  69.9991 186.6468 0003786 267.3718  92.7044 15.69929999 14038,6737.234,91.724,361.65,356.549,0.0
55275.0,STARLINK-5260,PAYLOAD,2023-04-16 12:51:28,15.69919305,0.0003391,69.9974,184.3156,264.0694,96.0115,-1.5868e-06,-4.04e-06,0.0,0 STARLINK-5260,1 55275U 23010G   23106.53575204 -.00000404  00000-0 -15868-5 0  9996,2 55275  69.9974 184.3156 0003391 264.0694  96.0115 15.69919305 14167,6737.265,91.724,361.414,356.845,0.0
55275.0,STARLINK-5260,PAYLOAD,2023-04-16 17:26:43,15.69926005,0.0003514,69.9974,183.7783,265.0249,95.0546,5.3217e-06,4.27e-06,0.0,0 STARLINK-5260,1 55275U 23010G   23106.72689657  .00000427  00000-0  53217-5 0  9998,2 55275  69.9974 183.7783 0003514 265.0249  95.0546 15.69926005 14195,6737.246,91.724,361.478,356.743,0.0
55275.0,STARLINK-5260,PAYLOAD,2023-04-17 13:19:31,15.69911128,0.0003408,69.9982,181.4497,266.5434,93.5372,2.8892e-05,3.261e-05,0.0,0 STARLINK-5260,1 55275U 23010G   23107.55522039  .00003261  00000-0  28892-4 0  9999,2 55275  69.9982 181.4497 0003408 266.5434  93.5372 15.69911128 14320,6737.288,91.725,361.449,356.857,0.0
55275.0,STARLINK-5260,PAYLOAD,2023-04-17 16:23:01,15.69916518,0.0003521,69.9982,181.0938,258.6269,101.4532,2.5796e-05,2.889e-05,0.0,0 STARLINK-5260,1 55275U 23010G   23107.68265083  .00002889  00000-0  25796-4 0  9991,2 55275  69.9982 181.0938 0003521 258.6269 101.4532 15.69916518 14662,6737.273,91.725,361.51,356.766,0.0
55275.0,STARLINK-5260,PAYLOAD,2023-04-18 07:40:32,15.69922474,0.0003225,69.9976,179.3012,267.952,92.1306,2.0691e-05,2.276e-05,0.0,0 STARLINK-5260,1 55275U 23010G   23108.31981604  .00002276  00000-0  20691-4 0  9995,2 55275  69.9976 179.3012 0003225 267.9520  92.1306 15.69922474 14766,6737.256,91.724,361.294,356.948,0.0
55275.0,STARLINK-5260,PAYLOAD,2023-04-18 16:51:02,15.69924295,0.0003785,69.9977,178.2265,262.4313,97.6453,1.4475e-05,1.528e-05,0.0,0 STARLINK-5260,1 55275U 23010G   23108.70211706  .00001528  00000-0  14475-4 0  9999,2 55275  69.9977 178.2265 0003785 262.4313  97.6453 15.69924295 14829,6737.251,91.724,361.666,356.566,0.0
55275.0,STARLINK-5260,PAYLOAD,2023-04-19 08:08:33,15.69931463,0.0003486,69.9981,176.4348,270.7332,89.3465,1.2788e-05,1.326e-05,0.0,0 STARLINK-5260,1 55275U 23010G   23109.33928015  .00001326  00000-0  12788-4 0  9998,2 55275  69.9981 176.4348 0003486 270.7332  89.3465 15.69931463 14924,6737.23,91.724,361.444,356.746,0.0
55275.0,STARLINK-5260,PAYLOAD,2023-04-19 14:15:33,15.69948855,0.0003301,69.9975,175.7176,269.4971,90.5846,-3.3513e-05,-4.245e-05,0.0,0 STARLINK-5260,1 55275U 23010G   23109.59414261 -.00004245  00000-0 -33513-4 0  9993,2 55275  69.9975 175.7176 0003301 269.4971  90.5846 15.69948855 14962,6737.18,91.723,361.269,356.821,0.0
